{
  "type": "FeatureCollection",
  "features": [
    {
      "type": "Feature",
      "properties": {
        "norad_id": 58701,
        "name": "TIANMU-1 16",
        "group": "weather",
        "lat": -67.90127605582542,
        "lon": -175.5230606736767,
        "alt_km": 496.8492520666623,
        "timestamp": "2025-12-10T18:56:59.705977+00:00",
        "meta_object_name": "TIANMU-1 16",
        "meta_object_id": "2024-004B",
        "meta_epoch": "2025-12-10T12:57:03.309696",
        "meta_mean_motion": 15.2438435,
        "meta_eccentricity": 0.0004584,
        "meta_inclination": 97.4571,
        "meta_ra_of_asc_node": 165.4085,
        "meta_arg_of_pericenter": 306.1456,
        "meta_mean_anomaly": 53.9356,
        "meta_ephemeris_type": 0,
        "meta_classification_type": "U",
        "meta_norad_cat_id": 58701,
        "meta_element_set_no": 999,
        "meta_rev_at_epoch": 10701,
        "meta_bstar": 0.00041799,
        "meta_mean_motion_dot": 0.00010176,
        "meta_mean_motion_ddot": 0,
        "tle_line1": "1 58701U 24004B   25344.53962164  .00010176  00000+0  41799-3 0  9992",
        "tle_line2": "2 58701  97.4571 165.4085 0004584 306.1456  53.9356 15.24384350107016"
      },
      "geometry": {
        "type": "Point",
        "coordinates": [
          -175.5230606736767,
          -67.90127605582542
        ]
      }
    },
    {
      "type": "Feature",
      "properties": {
        "norad_id": 58702,
        "name": "TIANMU-1 17",
        "group": "weather",
        "lat": 14.89735957862174,
        "lon": 164.06839921382684,
        "alt_km": 492.37425355364303,
        "timestamp": "2025-12-10T18:56:59.705995+00:00",
        "meta_object_name": "TIANMU-1 17",
        "meta_object_id": "2024-004C",
        "meta_epoch": "2025-12-10T12:34:57.911232",
        "meta_mean_motion": 15.24428931,
        "meta_eccentricity": 0.0003813,
        "meta_inclination": 97.4605,
        "meta_ra_of_asc_node": 165.8021,
        "meta_arg_of_pericenter": 310.1559,
        "meta_mean_anomaly": 49.9344,
        "meta_ephemeris_type": 0,
        "meta_classification_type": "U",
        "meta_norad_cat_id": 58702,
        "meta_element_set_no": 999,
        "meta_rev_at_epoch": 10700,
        "meta_bstar": 0.00043007,
        "meta_mean_motion_dot": 0.00010486,
        "meta_mean_motion_ddot": 0,
        "tle_line1": "1 58702U 24004C   25344.52428138  .00010486  00000+0  43007-3 0  9998",
        "tle_line2": "2 58702  97.4605 165.8021 0003813 310.1559  49.9344 15.24428931107007"
      },
      "geometry": {
        "type": "Point",
        "coordinates": [
          164.06839921382684,
          14.89735957862174
        ]
      }
    },
    {
      "type": "Feature",
      "properties": {
        "norad_id": 58703,
        "name": "TIANMU-1 18",
        "group": "weather",
        "lat": 71.69832200447493,
        "lon": 9.607525033973378,
        "alt_km": 487.61032630345017,
        "timestamp": "2025-12-10T18:56:59.706007+00:00",
        "meta_object_name": "TIANMU-1 18",
        "meta_object_id": "2024-004D",
        "meta_epoch": "2025-12-10T12:10:54.696864",
        "meta_mean_motion": 15.24417881,
        "meta_eccentricity": 0.0003148,
        "meta_inclination": 97.4622,
        "meta_ra_of_asc_node": 165.9803,
        "meta_arg_of_pericenter": 311.1126,
        "meta_mean_anomaly": 48.9839,
        "meta_ephemeris_type": 0,
        "meta_classification_type": "U",
        "meta_norad_cat_id": 58703,
        "meta_element_set_no": 999,
        "meta_rev_at_epoch": 10700,
        "meta_bstar": 0.00041496,
        "meta_mean_motion_dot": 0.00010111,
        "meta_mean_motion_ddot": 0,
        "tle_line1": "1 58703U 24004D   25344.50757751  .00010111  00000+0  41496-3 0  9998",
        "tle_line2": "2 58703  97.4622 165.9803 0003148 311.1126  48.9839 15.24417881107008"
      },
      "geometry": {
        "type": "Point",
        "coordinates": [
          9.607525033973378,
          71.69832200447493
        ]
      }
    },
    {
      "type": "Feature",
      "properties": {
        "norad_id": 58990,
        "name": "INSAT-3DS",
        "group": "weather",
        "lat": 0.011027050627511031,
        "lon": 86.07542682398973,
        "alt_km": 35793.4845486851,
        "timestamp": "2025-12-10T18:56:59.706019+00:00",
        "meta_object_name": "INSAT-3DS",
        "meta_object_id": "2024-033A",
        "meta_epoch": "2025-12-10T08:33:38.632032",
        "meta_mean_motion": 1.00269603,
        "meta_eccentricity": 0.00016,
        "meta_inclination": 0.0331,
        "meta_ra_of_asc_node": 122.5439,
        "meta_arg_of_pericenter": 143.2161,
        "meta_mean_anomaly": 24.0578,
        "meta_ephemeris_type": 0,
        "meta_classification_type": "U",
        "meta_norad_cat_id": 58990,
        "meta_element_set_no": 999,
        "meta_rev_at_epoch": 4517,
        "meta_bstar": 0,
        "meta_mean_motion_dot": -1.52e-06,
        "meta_mean_motion_ddot": 0,
        "tle_line1": "1 58990U 24033A   25344.35669713 -.00000152  00000+0  00000+0 0  9998",
        "tle_line2": "2 58990   0.0331 122.5439 0001600 143.2161  24.0578  1.00269603 45171"
      },
      "geometry": {
        "type": "Point",
        "coordinates": [
          86.07542682398973,
          0.011027050627511031
        ]
      }
    },
    {
      "type": "Feature",
      "properties": {
        "norad_id": 59051,
        "name": "METEOR-M2 4",
        "group": "weather",
        "lat": -79.13761915395703,
        "lon": -5.544726071584463,
        "alt_km": 824.3426389149572,
        "timestamp": "2025-12-10T18:56:59.706029+00:00",
        "meta_object_name": "METEOR-M2 4",
        "meta_object_id": "2024-039A",
        "meta_epoch": "2025-12-10T12:35:18.262752",
        "meta_mean_motion": 14.22400737,
        "meta_eccentricity": 0.0007162,
        "meta_inclination": 98.6763,
        "meta_ra_of_asc_node": 301.4682,
        "meta_arg_of_pericenter": 4.8784,
        "meta_mean_anomaly": 355.2462,
        "meta_ephemeris_type": 0,
        "meta_classification_type": "U",
        "meta_norad_cat_id": 59051,
        "meta_element_set_no": 999,
        "meta_rev_at_epoch": 9244,
        "meta_bstar": 5.9762e-05,
        "meta_mean_motion_dot": 8.9e-07,
        "meta_mean_motion_ddot": 0,
        "tle_line1": "1 59051U 24039A   25344.52451693  .00000089  00000+0  59762-4 0  9990",
        "tle_line2": "2 59051  98.6763 301.4682 0007162   4.8784 355.2462 14.22400737 92448"
      },
      "geometry": {
        "type": "Point",
        "coordinates": [
          -5.544726071584463,
          -79.13761915395703
        ]
      }
    },
    {
      "type": "Feature",
      "properties": {
        "norad_id": 60133,
        "name": "GOES 19",
        "group": "weather",
        "lat": 0.002773044598935539,
        "lon": -71.18202064565679,
        "alt_km": 35780.886372379646,
        "timestamp": "2025-12-10T18:56:59.706041+00:00",
        "meta_object_name": "GOES 19",
        "meta_object_id": "2024-119A",
        "meta_epoch": "2025-12-10T07:51:04.495104",
        "meta_mean_motion": 1.00271256,
        "meta_eccentricity": 0.000135,
        "meta_inclination": 0.0012,
        "meta_ra_of_asc_node": 239.7895,
        "meta_arg_of_pericenter": 67.9696,
        "meta_mean_anomaly": 174.1323,
        "meta_ephemeris_type": 0,
        "meta_classification_type": "U",
        "meta_norad_cat_id": 60133,
        "meta_element_set_no": 999,
        "meta_rev_at_epoch": 507,
        "meta_bstar": 0,
        "meta_mean_motion_dot": -2.45e-06,
        "meta_mean_motion_ddot": 0,
        "tle_line1": "1 60133U 24119A   25344.32713536 -.00000245  00000+0  00000+0 0  9998",
        "tle_line2": "2 60133   0.0012 239.7895 0001350  67.9696 174.1323  1.00271256  5070"
      },
      "geometry": {
        "type": "Point",
        "coordinates": [
          -71.18202064565679,
          0.002773044598935539
        ]
      }
    },
    {
      "type": "Feature",
      "properties": {
        "norad_id": 65815,
        "name": "FENGYUN 3H",
        "group": "weather",
        "lat": 6.737250290541886,
        "lon": 105.45368730729045,
        "alt_km": 827.6483228936277,
        "timestamp": "2025-12-10T18:56:59.706051+00:00",
        "meta_object_name": "FENGYUN 3H",
        "meta_object_id": "2025-219A",
        "meta_epoch": "2025-12-10T11:22:21.546336",
        "meta_mean_motion": 14.19903758,
        "meta_eccentricity": 6.01e-05,
        "meta_inclination": 98.6582,
        "meta_ra_of_asc_node": 284.1135,
        "meta_arg_of_pericenter": 87.3864,
        "meta_mean_anomaly": 272.7381,
        "meta_ephemeris_type": 0,
        "meta_classification_type": "U",
        "meta_norad_cat_id": 65815,
        "meta_element_set_no": 999,
        "meta_rev_at_epoch": 1060,
        "meta_bstar": 0.00010926,
        "meta_mean_motion_dot": 1.89e-06,
        "meta_mean_motion_ddot": 0,
        "tle_line1": "1 65815U 25219A   25344.47386049  .00000189  00000+0  10926-3 0  9991",
        "tle_line2": "2 65815  98.6582 284.1135 0000601  87.3864 272.7381 14.19903758 10606"
      },
      "geometry": {
        "type": "Point",
        "coordinates": [
          105.45368730729045,
          6.737250290541886
        ]
      }
    }
  ]
}